[{"OBJECT_NAME":"TIANHUI 5C","OBJECT_ID":"2024-126A","EPOCH":"2026-03-09T13:08:56.446656","MEAN_MOTION":14.87585548,"ECCENTRICITY":0.0001564,"INCLINATION":97.8217,"RA_OF_ASC_NODE":77.5195,"ARG_OF_PERICENTER":89.5456,"MEAN_ANOMALY":270.594,"EPHEMERIS_TYPE":0,"CLASSIFICATION_TYPE":"U","NORAD_CAT_ID":60211,"ELEMENT_SET_NO":999,"REV_AT_EPOCH":9107,"BSTAR":7.97e-5,"MEAN_MOTION_DOT":6.7e-6,"MEAN_MOTION_DDOT":0},{"OBJECT_NAME":"PSLV R\/B","OBJECT_ID":"2015-032F","EPOCH":"2026-03-09T21:07:29.271360","MEAN_MOTION":14.8642432,"ECCENTRICITY":0.00058037,"INCLINATION":98.1819,"RA_OF_ASC_NODE":36.049,"ARG_OF_PERICENTER":63.1475,"MEAN_ANOMALY":297.0333,"EPHEMERIS_TYPE":0,"CLASSIFICATION_TYPE":"U","NORAD_CAT_ID":40720,"ELEMENT_SET_NO":999,"REV_AT_EPOCH":57654,"BSTAR":0.00019704626,"MEAN_MOTION_DOT":1.682e-5,"MEAN_MOTION_DDOT":0}]
